INTELSAT 19 (IS-19)     
1 38356U 12030A   26060.48855172 -.00000075  00000+0  00000+0 0  9996
2 38356   0.0154 117.3186 0003064 231.1855 152.6415  1.00271653 49374
INTELSAT 20 (IS-20)     
1 38740U 12043A   26060.38925264 -.00000043  00000+0  00000+0 0  9991
2 38740   0.0233 125.7892 0002339  34.4696 207.5351  1.00272834 49660
INTELSAT 21 (IS-21)     
1 38749U 12045A   26060.43561951 -.00000303  00000+0  00000+0 0  9996
2 38749   0.0431 271.7894 0001790  66.4579 279.8010  1.00271548 49449
INTELSAT 23 (IS-23)     
1 38867U 12057A   26060.43665952 -.00000303  00000+0  00000+0 0  9996
2 38867   0.0512 264.0691 0001038  70.9054 288.4322  1.00274788 48870
FM-6                    
1 39360U 13058A   26060.45800272 -.00000034  00000+0  00000+0 0  9996
2 39360   0.0210 127.6620 0003259  52.4922  27.7936  1.00267346 44992
INTELSAT 30 (IS-30)     
1 40271U 14062A   26060.50453887 -.00000169  00000+0  00000+0 0  9996
2 40271   0.0140  79.3267 0001189  40.3089 126.2417  1.00271511  5712
DIRECTV 14              
1 40333U 14078B   26060.50364439 -.00000143  00000+0  00000+0 0  9998
2 40333   0.0186 113.5799 0000286  50.8466  76.9185  1.00269823 40966
DIRECTV 15              
1 40663U 15026A   26060.39835588 -.00000122  00000+0  00000+0 0  9990
2 40663   0.0192 103.0938 0000936 135.9982 320.6210  1.00277750 39388
SKY MEXICO-1            
1 40664U 15026B   26060.43154617  .00000000  00000+0  00000+0 0  9997
2 40664   0.0266 137.8747 0002242 219.7655 238.1871  1.00267710 39374
INTELSAT 34 (IS-34)     
1 40874U 15039A   26060.43613951 -.00000304  00000+0  00000+0 0  9993
2 40874   0.0149 194.5358 0000086 151.5786 274.6253  1.00273289 38542
INTELSAT 31 (IS-31)     
1 41581U 16035A   26060.50453968 -.00000169  00000+0  00000+0 0  9993
2 41581   0.0385 252.8821 0001986 339.5525  13.4314  1.00271522 35601
INTELSAT 36 (IS-36)     
1 41747U 16053A   26060.38925264  .00000000  00000+0  00000+0 0  9999
2 41747   0.0239 115.6113 0001403 208.5282  43.7042  1.00269885 34873
INTELSAT 32E (IS-32E)   
1 41945U 17007B   26060.43856620 -.00000287  00000+0  00000+0 0  9992
2 41945   0.0136 116.4459 0000517 151.4670   6.0052  1.00269620 33142
INTELSAT 35E (IS-35E)   
1 42818U 17041A   26060.44350201 -.00000257  00000+0  00000+0 0  9992
2 42818   0.0143 213.7902 0002190 122.7820 307.8024  1.00270313 31736
INTELSAT 37E (IS-37E)   
1 42950U 17059A   26060.43239193 -.00000159  00000+0  00000+0 0  9994
2 42950   0.0147 121.3955 0002285 211.2444 324.2340  1.00271463 30987
AZERSPACE 2 (IS-38)     
1 43632U 18074A   26060.22267191  .00000000  00000+0  00000+0 0  9990
2 43632   0.0240 150.6632 0001464 188.0494 305.6030  1.00268768 27361
HORIZONS-3E             
1 43633U 18074B   26060.37453449 -.00000049  00000+0  00000+0 0  9994
2 43633   0.0030 233.9244 0000704  86.7354 142.3058  1.00271795 27267
AT&T T-16               
1 44333U 19034A   26060.39695368 -.00000134  00000+0  00000+0 0  9994
2 44333   0.0206 102.4851 0000876  83.4546  15.2852  1.00272662 24554
INTELSAT 39 (IS-39)     
1 44476U 19049B   26060.49991867  .00000000  00000+0  00000+0 0  9993
2 44476   0.0262 143.4222 0000607  22.0639 235.7363  1.00268787 24048
GALAXY 30 (G-30)        
1 46114U 20056C   26060.40670370  .00000019  00000+0  00000+0 0  9998
2 46114   0.0191 126.8337 0002071 227.9721 185.7736  1.00271297 20210
GALAXY 33 (G-33)        
1 54026U 22128A   26060.35092123  .00000061  00000+0  00000+0 0  9996
2 54026   0.0207  89.5662 0001965 243.1959 179.6830  1.00270270 12666
GALAXY 34 (G-34)        
1 54027U 22128B   26060.34954205  .00000041  00000+0  00000+0 0  9992
2 54027   0.0227 105.6029 0001391 236.1204 174.2470  1.00271938 12836
GALAXY 31 (G-31)        
1 54243U 22153A   26060.51491169 -.00000005  00000+0  00000+0 0  9995
2 54243   0.0213 119.3371 0001546 224.8276 239.4929  1.00271763  6054
GALAXY 32 (G-32)        
1 54244U 22153B   26060.21522517  .00000000  00000+0  00000+0 0  9999
2 54244   0.0199 134.5633 0003055 214.7397 156.2099  1.00269681 12065
GALAXY 35 (G-35)        
1 54741U 22170A   26060.42868615 -.00000180  00000+0  00000+0 0  9995
2 54741   0.0171 121.6112 0002103 214.6678 244.1640  1.00271457 11815
GALAXY 36 (G-36)        
1 54742U 22170B   26060.43284493 -.00000203  00000+0  00000+0 0  9999
2 54742   0.0126 156.8334 0001882 234.1793 195.0232  1.00270978 11694
GALAXY 37 (G-37)        
1 57493U 23112A   26060.51699250  .00000000  00000+0  00000+0 0  9996
2 57493   0.0267 133.5307 0002104 209.5454 235.3647  1.00269896  9463
